[{"OBJECT_NAME":"STARLINK-3401","OBJECT_ID":"2022-010K","EPOCH":"2026-03-09T22:53:36.128832","MEAN_MOTION":15.08838173,"ECCENTRICITY":0.00012382,"INCLINATION":53.2175,"RA_OF_ASC_NODE":277.937,"ARG_OF_PERICENTER":98.669,"MEAN_ANOMALY":261.4442,"EPHEMERIS_TYPE":0,"CLASSIFICATION_TYPE":"U","NORAD_CAT_ID":51465,"ELEMENT_SET_NO":999,"REV_AT_EPOCH":22736,"BSTAR":4.7994425e-5,"MEAN_MOTION_DOT":4.76e-6,"MEAN_MOTION_DDOT":0},{"OBJECT_NAME":"DELTA 1 DEB","OBJECT_ID":"1978-026BX","EPOCH":"2026-03-09T21:34:36.806304","MEAN_MOTION":15.0275865,"ECCENTRICITY":0.00371244,"INCLINATION":98.0194,"RA_OF_ASC_NODE":65.5332,"ARG_OF_PERICENTER":51.7385,"MEAN_ANOMALY":308.7169,"EPHEMERIS_TYPE":0,"CLASSIFICATION_TYPE":"U","NORAD_CAT_ID":12230,"ELEMENT_SET_NO":999,"REV_AT_EPOCH":36609,"BSTAR":0.0014350783,"MEAN_MOTION_DOT":0.00019449,"MEAN_MOTION_DDOT":0}]
